OBJECT_NAME,OBJECT_ID,EPOCH,MEAN_MOTION,ECCENTRICITY,INCLINATION,RA_OF_ASC_NODE,ARG_OF_PERICENTER,MEAN_ANOMALY,EPHEMERIS_TYPE,CLASSIFICATION_TYPE,NORAD_CAT_ID,ELEMENT_SET_NO,REV_AT_EPOCH,BSTAR,MEAN_MOTION_DOT,MEAN_MOTION_DDOT
JILIN-1 GAOFEN 03D48,2022-167P,2026-07-06T19:34:38.589888,15.35666538,.0007083,97.6898,358.1735,56.5665,303.6254,0,U,54695,999,19840,.27592E-3,.9492E-4,0
SHIYAN-20A (SY-20A),2022-169A,2026-07-06T19:36:19.276128,14.29547138,.0004527,59.9950,175.5683,194.5435,165.5470,0,U,54699,999,18616,.38602E-4,-.38E-6,0
SHIYAN-20B (SY-20B),2022-169B,2026-07-06T19:42:36.476928,14.29546227,.0008595,59.9951,175.6239,232.0579,127.9680,0,U,54700,999,18616,.40617E-4,-.32E-6,0
GALAXY 35 (G-35),2022-170A,2026-07-06T13:21:01.809216,1.00271835,.0002114,0.0208,89.2684,18.8807,283.5456,0,U,54741,999,1308,0,-.148E-5,0
GALAXY 36 (G-36),2022-170B,2026-07-06T15:04:54.806304,1.00271211,.0002703,0.0230,135.5437,321.7428,324.5516,0,U,54742,999,1296,0,-.17E-5,0
METEOSAT-12 (MTG-I1),2022-170C,2026-07-06T13:47:36.760128,1.00276487,.0003406,0.7593,25.8620,76.6678,28.7511,0,U,54743,999,1317,0,.9E-7,0
YAOGAN-36 04A,2022-171A,2026-07-06T05:07:46.852608,15.21224930,.00059276,34.9900,102.1179,105.3845,254.7524,0,U,54746,999,19802,.29248943E-3,.6658E-4,0
YAOGAN-36 04B,2022-171C,2026-07-06T19:43:03.237600,15.23150464,.0003933,35.0047,71.4722,25.7742,334.3169,0,U,54748,999,19838,.28895E-3,.6962E-4,0
YAOGAN-36 04C,2022-171E,2026-07-06T21:17:32.678592,15.33023871,.0007615,34.9808,57.7126,303.0770,56.9216,0,U,54750,999,19851,.42411E-3,.13886E-3,0
SHIYAN-21 (SY-21),2022-172A,2026-07-06T18:56:25.420704,15.27355378,.0026661,35.9859,309.2103,57.3737,302.9565,0,U,54752,999,19868,.21984E-3,.6026E-4,0
SWOT,2022-173A,2026-07-06T20:27:38.650752,14.00171817,.0000287,77.6104,8.7610,77.4080,282.7104,0,U,54754,999,18190,.14097E-5,0,0
O3B MPOWER F1,2022-174A,2026-07-06T15:56:01.037760,5.00114858,.0006579,0.0500,339.8878,136.7868,119.4271,0,U,54755,999,6633,0,-.1E-6,0
O3B MPOWER F2,2022-174B,2026-07-06T16:47:12.213024,5.00114978,.0005819,0.0459,339.9709,120.4876,259.6075,0,U,54756,999,6642,0,-.1E-6,0
STARLINK-5464,2022-175A,2026-07-06T20:00:01.999008,15.19517796,.0002168,53.1592,223.9978,55.6516,54.5216,0,U,54758,999,583,.88978E-3,.18863E-3,0
STARLINK-5215,2022-175B,2026-07-06T20:00:01.999008,15.23135330,.0002217,53.1591,223.8505,82.9161,100.8629,0,U,54759,999,583,.8437E-3,.19897E-3,0
STARLINK-5220,2022-175C,2026-07-06T10:34:09.342624,15.08821950,.0001074,53.1591,231.0035,80.6414,279.4699,0,U,54760,999,19784,.56301E-4,.608E-5,0
STARLINK-5202,2022-175D,2026-07-06T20:00:01.999008,15.14349966,.0001083,53.1606,229.2231,128.8180,215.8899,0,U,54761,999,583,.7468E-3,.13574E-3,0
STARLINK-5214,2022-175E,2026-07-06T10:23:12.482304,15.29352419,.0001141,53.1614,228.8659,79.6766,280.4363,0,U,54762,999,19787,.2214E-5,-.292E-5,0
STARLINK-5191,2022-175F,2026-07-06T10:28:50.909376,15.08827826,.0000931,53.1592,230.9823,82.8645,277.2452,0,U,54763,999,19784,-.32044E-4,-.798E-5,0
STARLINK-5458,2022-175G,2026-07-06T14:44:32.888256,15.08819941,.0001317,53.1585,229.9614,93.6382,266.4760,0,U,54764,999,19787,-.13468E-4,-.502E-5,0
STARLINK-5471,2022-175J,2026-07-06T11:43:00.567264,15.08827199,.0001274,53.1581,230.5920,83.5836,276.5300,0,U,54766,999,19785,-.9731232E-4,-.1836E-4,0
STARLINK-5472,2022-175K,2026-07-06T08:26:55.754016,15.08825014,.00012985,53.1593,231.1649,85.4590,274.6550,0,U,54767,999,19783,-.43855108E-4,-.986E-5,0
STARLINK-5444,2022-175L,2026-07-06T09:03:02.532960,15.31703649,.00021431,53.1598,214.2597,148.5928,211.5202,0,U,54768,999,19807,.9963323E-5,-.57E-6,0
STARLINK-5448,2022-175N,2026-07-06T20:00:01.999008,15.34395425,.0001301,53.1615,211.7386,77.3355,122.9307,0,U,54770,999,583,.36142E-3,.11853E-3,0
STARLINK-5451,2022-175P,2026-07-06T20:00:01.999008,15.18757318,.0001675,53.1614,223.6260,79.2832,220.4000,0,U,54771,999,583,.95066E-3,.19734E-3,0
STARLINK-5452,2022-175Q,2026-07-06T20:00:01.999008,15.25698613,.0000276,53.1592,213.5336,103.9314,254.9580,0,U,54772,999,528,.14848E-2,.38188E-3,0
STARLINK-5453,2022-175R,2026-07-06T09:51:41.819616,15.08824902,.0000979,53.1571,230.8179,126.5635,233.5447,0,U,54773,999,19784,-.94623E-4,-.1793E-4,0
STARLINK-5454,2022-175S,2026-07-06T20:00:01.999008,15.22880037,.0002146,53.1616,213.2948,69.3248,52.1574,0,U,54774,999,563,.16572E-2,.39207E-3,0
STARLINK-5465,2022-175T,2026-07-06T08:11:00.691008,15.08825211,.00012256,53.1590,231.0986,86.8784,273.2348,0,U,54775,999,19783,-.73852884E-4,-.1463E-4,0
STARLINK-5470,2022-175U,2026-07-06T09:14:33.523872,15.08833122,.00008723,53.1586,230.6667,89.8723,270.2369,0,U,54776,999,19784,-.1862278E-5,-.317E-5,0
