JILIN-1 GAOFEN 03D48    
1 54695U 22167P   26187.81572442  .00009492  00000+0  27592-3 0  9995
2 54695  97.6898 358.1735 0007083  56.5665 303.6254 15.35666538198404
SHIYAN-20A (SY-20A)     
1 54699U 22169A   26187.81688977 -.00000038  00000+0  38602-4 0  9995
2 54699  59.9950 175.5683 0004527 194.5435 165.5470 14.29547138186160
SHIYAN-20B (SY-20B)     
1 54700U 22169B   26187.82125552 -.00000032  00000+0  40617-4 0  9997
2 54700  59.9951 175.6239 0008595 232.0579 127.9680 14.29546227186161
GALAXY 35 (G-35)        
1 54741U 22170A   26187.55627094 -.00000148  00000+0  00000+0 0  9997
2 54741   0.0208  89.2684 0002114  18.8807 283.5456  1.00271835 13082
GALAXY 36 (G-36)        
1 54742U 22170B   26187.62841211 -.00000170  00000+0  00000+0 0  9990
2 54742   0.0230 135.5437 0002703 321.7428 324.5516  1.00271211 12965
METEOSAT-12 (MTG-I1)    
1 54743U 22170C   26187.57473102  .00000009  00000+0  00000+0 0  9995
2 54743   0.7593  25.8620 0003406  76.6678  28.7511  1.00276487 13176
YAOGAN-36 04A           
1 54746U 22171A   26187.21373672  .00006658  00000+0  29249-3 0  9997
2 54746  34.9900 102.1179 0005927 105.3845 254.7524 15.21224930198021
YAOGAN-36 04B           
1 54748U 22171C   26187.82156525  .00006962  00000+0  28895-3 0  9996
2 54748  35.0047  71.4722 0003933  25.7742 334.3169 15.23150464198386
YAOGAN-36 04C           
1 54750U 22171E   26187.88718378  .00013886  00000+0  42411-3 0  9998
2 54750  34.9808  57.7126 0007615 303.0770  56.9216 15.33023871198518
SHIYAN-21 (SY-21)       
1 54752U 22172A   26187.78918311  .00006026  00000+0  21984-3 0  9999
2 54752  35.9859 309.2103 0026661  57.3737 302.9565 15.27355378198683
SWOT                    
1 54754U 22173A   26187.85253068  .00000000  00000+0  14097-5 0  9996
2 54754  77.6104   8.7610 0000287  77.4080 282.7104 14.00171817181900
O3B MPOWER F1           
1 54755U 22174A   26187.66390090 -.00000010  00000+0  00000+0 0  9999
2 54755   0.0500 339.8878 0006579 136.7868 119.4271  5.00114858 66330
O3B MPOWER F2           
1 54756U 22174B   26187.69944691 -.00000010  00000+0  00000+0 0  9995
2 54756   0.0459 339.9709 0005819 120.4876 259.6075  5.00114978 66425
STARLINK-5464           
1 54758U 22175A   26187.83335647  .00018863  00000+0  88978-3 0  9997
2 54758  53.1592 223.9978 0002168  55.6516  54.5216 15.19517796  5831
STARLINK-5215           
1 54759U 22175B   26187.83335647  .00019897  00000+0  84370-3 0  9998
2 54759  53.1591 223.8505 0002217  82.9161 100.8629 15.23135330  5838
STARLINK-5220           
1 54760U 22175C   26187.44038591  .00000608  00000+0  56301-4 0  9999
2 54760  53.1591 231.0035 0001074  80.6414 279.4699 15.08821950197841
STARLINK-5202           
1 54761U 22175D   26187.83335647  .00013574  00000+0  74680-3 0  9990
2 54761  53.1606 229.2231 0001083 128.8180 215.8899 15.14349966  5833
STARLINK-5214           
1 54762U 22175E   26187.43278336 -.00000292  00000+0  22140-5 0  9998
2 54762  53.1614 228.8659 0001141  79.6766 280.4363 15.29352419197873
STARLINK-5191           
1 54763U 22175F   26187.43670034 -.00000798  00000+0 -32044-4 0  9995
2 54763  53.1592 230.9823 0000931  82.8645 277.2452 15.08827826197840
STARLINK-5458           
1 54764U 22175G   26187.61426954 -.00000502  00000+0 -13468-4 0  9998
2 54764  53.1585 229.9614 0001317  93.6382 266.4760 15.08819941197870
STARLINK-5471           
1 54766U 22175J   26187.48820101 -.00001836  00000+0 -97312-4 0  9998
2 54766  53.1581 230.5920 0001274  83.5836 276.5300 15.08827199197854
STARLINK-5472           
1 54767U 22175K   26187.35203419 -.00000986  00000+0 -43855-4 0  9990
2 54767  53.1593 231.1649 0001298  85.4590 274.6550 15.08825014197835
STARLINK-5444           
1 54768U 22175L   26187.37711265 -.00000057  00000+0  99633-5 0  9990
2 54768  53.1598 214.2597 0002143 148.5928 211.5202 15.31703649198077
STARLINK-5448           
1 54770U 22175N   26187.83335647  .00011853  00000+0  36142-3 0  9999
2 54770  53.1615 211.7386 0001301  77.3355 122.9307 15.34395425  5830
STARLINK-5451           
1 54771U 22175P   26187.83335647  .00019734  00000+0  95066-3 0  9996
2 54771  53.1614 223.6260 0001675  79.2832 220.4000 15.18757318  5837
STARLINK-5452           
1 54772U 22175Q   26187.83335647  .00038188  00000+0  14848-2 0  9999
2 54772  53.1592 213.5336 0000276 103.9314 254.9580 15.25698613  5285
STARLINK-5453           
1 54773U 22175R   26187.41090069 -.00001793  00000+0 -94623-4 0  9995
2 54773  53.1571 230.8179 0000979 126.5635 233.5447 15.08824902197849
STARLINK-5454           
1 54774U 22175S   26187.83335647  .00039207  00000+0  16572-2 0  9990
2 54774  53.1616 213.2948 0002146  69.3248  52.1574 15.22880037  5639
STARLINK-5465           
1 54775U 22175T   26187.34098022 -.00001463  00000+0 -73853-4 0  9992
2 54775  53.1590 231.0986 0001225  86.8784 273.2348 15.08825211197833
STARLINK-5470           
1 54776U 22175U   26187.38511023 -.00000317  00000+0 -18623-5 0  9990
2 54776  53.1586 230.6667 0000872  89.8723 270.2369 15.08833122197844
